{"type":"FeatureCollection","name":"Lake Tangipahoa historical creek channel","metadata":{"source_url":"https://www.mdwfp.com/sites/default/files/2024-05/lake-tangipahoa-2016.pdf","source_date":"2016-10","source_sha256":"8e23f4cf2d615038142c8c656bda8df5aafe0ffc5e14ea68cd251d5eac9be637","generated_by":"scripts/extract-channel.py","method":"Extract 77 white cubic vector strokes; join consecutive dash endpoints with straight segments. No extrapolation beyond the published line.","source_crs":"NAD83(HARN) / Mississippi TM","output_crs":"EPSG:4326","georeferencing":"Main Lake viewport GPTS/LPTS; affine in embedded projected CRS, then transform to WGS84. Same method as depth contours.","control_fit_max_residual_m":0.199,"source_strokes":77,"joined_dash_gaps":76,"max_joined_dash_gap_m":21.715,"curve_flattening_tolerance_pdf_pt":0.02,"limitations":"Historical mapped channel, not a current survey. Source positional accuracy and channel width are unspecified. Straight bridges across the printed dash gaps are approximate. This line does not indicate channel depth or navigable water."},"features":[{"type":"Feature","properties":{"id":"creek-channel-2016","name":"Creek channel","source_date":"2016-10","source":"MDWFP Lake Tangipahoa depth map","length_m":3166.9},"geometry":{"type":"LineString","coordinates":[[-90.5274129,31.174863],[-90.5274324,31.1749114],[-90.5274495,31.1749566],[-90.5274616,31.1749997],[-90.5274651,31.1750209],[-90.5274665,31.1750419],[-90.527481,31.1752321],[-90.5274713,31.1752805],[-90.527459,31.1753247],[-90.5274512,31.1753452],[-90.5274418,31.1753647],[-90.5274306,31.1753831],[-90.5274173,31.1754005],[-90.5274174,31.1754117],[-90.5272753,31.1755469],[-90.5271797,31.1755979],[-90.5271349,31.1756234],[-90.5270938,31.1756488],[-90.5269125,31.1757619],[-90.5268716,31.1757874],[-90.5268282,31.1758128],[-90.5267849,31.1758383],[-90.526744,31.1758637],[-90.5265626,31.1759656],[-90.5265142,31.1759928],[-90.526467,31.1760222],[-90.5263812,31.1760787],[-90.5262391,31.1762139],[-90.526202,31.1762589],[-90.5261865,31.1762804],[-90.5261747,31.1763039],[-90.5261555,31.176339],[-90.5261363,31.1763825],[-90.5260857,31.176562],[-90.5260783,31.176606],[-90.5260734,31.1766531],[-90.5260685,31.1767022],[-90.5260612,31.1767525],[-90.5260496,31.1769317],[-90.5260498,31.1769541],[-90.5260326,31.1770382],[-90.526027,31.1770803],[-90.5260252,31.1771223],[-90.5259876,31.1773017],[-90.5259859,31.1773503],[-90.5259818,31.1773969],[-90.5259777,31.1774434],[-90.5259761,31.1774921],[-90.5259645,31.1776713],[-90.5259654,31.1777721],[-90.5259661,31.1778617],[-90.5259676,31.1780521],[-90.52597,31.1781416],[-90.5259742,31.1781874],[-90.5259821,31.1782311],[-90.5260617,31.1784098],[-90.526129,31.1784822],[-90.526167,31.1785194],[-90.5262061,31.1785545],[-90.5263635,31.1786879],[-90.5263951,31.1787213],[-90.5264291,31.1787547],[-90.5264632,31.1787881],[-90.5264948,31.1788215],[-90.5265874,31.1790001],[-90.5265973,31.1790438],[-90.526606,31.1790896],[-90.5266123,31.1791354],[-90.5266149,31.1791791],[-90.5266425,31.1793693],[-90.5266439,31.1795373],[-90.526644,31.1795485],[-90.5266585,31.1797388],[-90.5266601,31.1799291],[-90.5266616,31.1801083],[-90.5266544,31.180157],[-90.5266509,31.1802035],[-90.5266499,31.1802501],[-90.5266501,31.1802987],[-90.5266647,31.180489],[-90.5266673,31.1805327],[-90.5266735,31.1805785],[-90.5266823,31.1806243],[-90.5266922,31.180668],[-90.5267068,31.1808583],[-90.5267148,31.180902],[-90.5267205,31.1809478],[-90.5267262,31.1809936],[-90.5267343,31.1810373],[-90.5267228,31.1812277],[-90.5267154,31.1812379],[-90.5267116,31.1812502],[-90.5267102,31.1812726],[-90.5266895,31.1813399],[-90.5266762,31.1813736],[-90.5266592,31.1814073],[-90.5265825,31.1815869],[-90.5265555,31.1816226],[-90.526531,31.1816614],[-90.5265065,31.1817023],[-90.5264796,31.1817443],[-90.5263507,31.1819019],[-90.5262911,31.181975],[-90.5262582,31.1820127],[-90.5262217,31.1820482],[-90.5260796,31.1821947],[-90.5260484,31.1822284],[-90.5260135,31.1822623],[-90.5259375,31.1823299],[-90.5257954,31.1824651],[-90.5257564,31.1824988],[-90.5257162,31.1825314],[-90.5256735,31.1825619],[-90.5256271,31.1825893],[-90.5254719,31.1827135],[-90.5253828,31.1827742],[-90.5253035,31.1828265],[-90.5251221,31.1829395],[-90.5250363,31.1829961],[-90.5249892,31.1830254],[-90.5249407,31.1830526],[-90.5247592,31.1831433],[-90.5246619,31.1831929],[-90.5246133,31.1832151],[-90.5245646,31.1832341],[-90.524383,31.1833248],[-90.5243344,31.1833436],[-90.5242857,31.1833645],[-90.524237,31.1833855],[-90.5241884,31.1834043],[-90.5239938,31.1834951],[-90.5239728,31.183512],[-90.5239592,31.1835205],[-90.523942,31.183529],[-90.523882,31.1835644],[-90.5238124,31.1836082],[-90.5236571,31.1837323],[-90.523502,31.1838676],[-90.5233598,31.1840028],[-90.5232823,31.1840691],[-90.5232434,31.1840996],[-90.5232046,31.184127],[-90.5230232,31.18424],[-90.5229819,31.1842651],[-90.5229357,31.1842882],[-90.5229108,31.1842982],[-90.5228846,31.184307],[-90.5228572,31.1843142],[-90.5228285,31.1843196],[-90.5226205,31.1843545],[-90.5225145,31.1843383],[-90.5223988,31.1843222],[-90.5221901,31.1842787],[-90.5221392,31.1842725],[-90.5220859,31.1842695],[-90.5219817,31.1842687],[-90.5217605,31.1842925],[-90.5217097,31.1843031],[-90.5216565,31.1843169],[-90.5216034,31.1843328],[-90.5215526,31.1843497],[-90.5213842,31.1844515],[-90.5213709,31.1844694],[-90.5213599,31.1844891],[-90.521351,31.1845104],[-90.5213441,31.1845329],[-90.5213391,31.1845565],[-90.5213358,31.1845809],[-90.5213336,31.184631],[-90.521361,31.18481],[-90.5213633,31.1848602],[-90.5213667,31.1849093],[-90.5213677,31.1849564],[-90.5213662,31.1849788],[-90.5213626,31.1850003],[-90.5212989,31.1851799],[-90.5212777,31.185222],[-90.5212541,31.1852642],[-90.5212304,31.1853063],[-90.5212092,31.1853484],[-90.5210802,31.185506],[-90.5210512,31.1855417],[-90.5210222,31.1855805],[-90.5209643,31.1856634],[-90.5208614,31.1858208],[-90.5208231,31.1859106],[-90.5207847,31.1860005],[-90.5207211,31.18618],[-90.5206843,31.1862642],[-90.520669,31.1863063],[-90.5206573,31.1863484],[-90.5205807,31.186528],[-90.520573,31.1865364],[-90.5205678,31.1865449],[-90.5205626,31.1865533],[-90.5205549,31.1865618],[-90.520543,31.1865954],[-90.5205261,31.1866291],[-90.5205044,31.1866628],[-90.5204779,31.1866966],[-90.520375,31.186854],[-90.520317,31.1869369],[-90.520288,31.1869758],[-90.520259,31.1870115],[-90.5201432,31.1871801],[-90.5201164,31.1872158],[-90.5200933,31.1872546],[-90.5200727,31.1872955],[-90.5200533,31.1873374],[-90.5199766,31.1875171],[-90.5199597,31.1875609],[-90.5199464,31.1876068],[-90.519926,31.1876965],[-90.5199015,31.1878871],[-90.5198996,31.1879308],[-90.5198941,31.1879767],[-90.5198861,31.1880226],[-90.5198769,31.1880664],[-90.5198524,31.1882569],[-90.519841,31.1883007],[-90.5198271,31.1883466],[-90.5198132,31.1883926],[-90.5198018,31.1884364],[-90.5197512,31.1886158],[-90.519734,31.1886597],[-90.5197193,31.1887056],[-90.5197046,31.1887516],[-90.5196875,31.1887954],[-90.5196238,31.1889749],[-90.5196124,31.1890188],[-90.5195985,31.1890647],[-90.5195847,31.1891106],[-90.5195732,31.1891544],[-90.5195226,31.1893339],[-90.5195057,31.1893826],[-90.5194924,31.1894293],[-90.5194816,31.1894759],[-90.519472,31.1895246],[-90.5194474,31.1897039],[-90.5194303,31.1897992],[-90.5194248,31.1898457],[-90.5194229,31.1898944],[-90.5194114,31.1900736],[-90.5194042,31.1901223],[-90.5194007,31.1901689],[-90.5193997,31.1902154],[-90.5193999,31.1902641],[-90.5193753,31.1904434],[-90.519368,31.1904937],[-90.5193631,31.1905428],[-90.5193582,31.1905899],[-90.5193508,31.1906339],[-90.5193132,31.1908133],[-90.5193018,31.190862],[-90.5192879,31.1909086],[-90.519274,31.1909553],[-90.5192626,31.191004],[-90.519212,31.1911834],[-90.5192006,31.1912273],[-90.5191867,31.1912732],[-90.5191728,31.1913191],[-90.5191614,31.1913629],[-90.5190977,31.1915425],[-90.5190593,31.1916281],[-90.519021,31.1917221],[-90.5189573,31.1918905],[-90.5189361,31.1919343],[-90.5189124,31.1919803],[-90.5188888,31.1920263],[-90.5188676,31.1920702],[-90.5187778,31.1922387],[-90.5187566,31.1922808],[-90.5187329,31.1923229],[-90.5187092,31.1923651],[-90.518688,31.1924072],[-90.5185982,31.1925757],[-90.5185772,31.1926178],[-90.5185549,31.1926599],[-90.5185351,31.1927021],[-90.5185273,31.1927231],[-90.5185214,31.1927441],[-90.5184317,31.1929238],[-90.5183549,31.1930923],[-90.5182913,31.1932718],[-90.5182841,31.1933139],[-90.5182806,31.1933559],[-90.5182796,31.1934399],[-90.5182927,31.193451],[-90.5183852,31.1936184],[-90.5184526,31.1936908],[-90.5184905,31.193728],[-90.5185297,31.1937631],[-90.5186869,31.1938853],[-90.5188312,31.1940077],[-90.5188314,31.1940141],[-90.5188329,31.1940174],[-90.5188368,31.1940186],[-90.5188443,31.1940188],[-90.5189887,31.1941635],[-90.5190658,31.1942302],[-90.5191013,31.1942636],[-90.5191331,31.194297],[-90.5192904,31.1944304],[-90.5193675,31.1944971],[-90.5194029,31.1945305],[-90.5194348,31.1945639],[-90.5195532,31.19472],[-90.5195631,31.194735],[-90.519573,31.1947479],[-90.5195829,31.1947607],[-90.5195928,31.1947757],[-90.5196103,31.1948026],[-90.5196241,31.1948315],[-90.5196458,31.1948874],[-90.5197123,31.1950662],[-90.5197529,31.1952563],[-90.5197804,31.1954353],[-90.5197886,31.1954839],[-90.5197942,31.1955304],[-90.5197999,31.1955769],[-90.519808,31.1956255],[-90.5198485,31.1958044],[-90.5198512,31.195853],[-90.5198575,31.1958995],[-90.5198761,31.1959946],[-90.5199426,31.1961622],[-90.519958,31.1961821],[-90.5199747,31.1962003],[-90.5199925,31.1962172],[-90.5200116,31.1962332],[-90.5200533,31.1962639],[-90.5201,31.1962956],[-90.5202573,31.1964178],[-90.5202767,31.1964328],[-90.5202949,31.1964456],[-90.5203107,31.1964585],[-90.5203228,31.1964734],[-90.5204146,31.1965513],[-90.5205591,31.196696],[-90.5206231,31.1967642],[-90.5206533,31.1968009],[-90.5206664,31.1968204],[-90.5206774,31.1968408],[-90.520757,31.1970195],[-90.5207976,31.1971984],[-90.5208511,31.1973773],[-90.520859,31.1973923],[-90.5208644,31.1974052],[-90.5208698,31.1974181],[-90.5208776,31.1974331],[-90.5208899,31.1974647],[-90.5209058,31.1974931],[-90.5209241,31.1975195],[-90.5209436,31.1975447],[-90.5210622,31.197712],[-90.5211021,31.1978125],[-90.5211027,31.1978909],[-90.5210391,31.1980704],[-90.5210332,31.1980915],[-90.5210256,31.1981127],[-90.5210072,31.198156],[-90.5209889,31.1982014],[-90.5209812,31.1982253],[-90.5209754,31.19825],[-90.5209508,31.1984293],[-90.5209435,31.198478],[-90.5209386,31.1985246],[-90.5209337,31.1985711],[-90.5209263,31.1986198]]}}]}
